[{"OBJECT_NAME":"STARLINK-30182","OBJECT_ID":"2023-102J","EPOCH":"2026-03-09T22:00:01.999584","MEAN_MOTION":15.17692309,"ECCENTRICITY":0.00017334,"INCLINATION":43.0001,"RA_OF_ASC_NODE":246.596,"ARG_OF_PERICENTER":271.5021,"MEAN_ANOMALY":59.9842,"EPHEMERIS_TYPE":0,"CLASSIFICATION_TYPE":"U","NORAD_CAT_ID":57412,"ELEMENT_SET_NO":999,"REV_AT_EPOCH":577,"BSTAR":0.0061388079,"MEAN_MOTION_DOT":0.00128052,"MEAN_MOTION_DDOT":0},{"OBJECT_NAME":"SKYBEE-A02","OBJECT_ID":"2025-135S","EPOCH":"2026-03-09T21:58:43.816224","MEAN_MOTION":15.19505176,"ECCENTRICITY":0.00031028,"INCLINATION":97.4603,"RA_OF_ASC_NODE":184.7908,"ARG_OF_PERICENTER":118.2708,"MEAN_ANOMALY":241.884,"EPHEMERIS_TYPE":0,"CLASSIFICATION_TYPE":"U","NORAD_CAT_ID":64544,"ELEMENT_SET_NO":999,"REV_AT_EPOCH":3975,"BSTAR":0.00020650672,"MEAN_MOTION_DOT":4.316e-5,"MEAN_MOTION_DDOT":0}]
